[{"OBJECT_NAME":"STARLINK-5635","OBJECT_ID":"2023-013AN","EPOCH":"2026-03-09T22:00:01.999584","MEAN_MOTION":15.08461867,"ECCENTRICITY":0.00018712,"INCLINATION":42.9998,"RA_OF_ASC_NODE":286.1756,"ARG_OF_PERICENTER":247.7318,"MEAN_ANOMALY":67.9824,"EPHEMERIS_TYPE":0,"CLASSIFICATION_TYPE":"U","NORAD_CAT_ID":55367,"ELEMENT_SET_NO":999,"REV_AT_EPOCH":567,"BSTAR":0.0026715838,"MEAN_MOTION_DOT":0.00042373,"MEAN_MOTION_DDOT":0},{"OBJECT_NAME":"CZ-4B DEB","OBJECT_ID":"2008-053L","EPOCH":"2026-03-08T19:52:33.417984","MEAN_MOTION":15.09778257,"ECCENTRICITY":0.00077037,"INCLINATION":97.7892,"RA_OF_ASC_NODE":87.441,"ARG_OF_PERICENTER":237.5543,"MEAN_ANOMALY":122.4941,"EPHEMERIS_TYPE":0,"CLASSIFICATION_TYPE":"U","NORAD_CAT_ID":36290,"ELEMENT_SET_NO":999,"REV_AT_EPOCH":71411,"BSTAR":0.00021001,"MEAN_MOTION_DOT":3.326e-5,"MEAN_MOTION_DDOT":0}]
